ASIASTAR                
1 26107U 00016A   09010.87994213 -.00000331  00000-0  10000-3 0  5534
2 26107   0.0177  12.4194 0004258 272.8134 247.0592  1.00270894 32319
INSAT-3B                
1 26108U 00016B   09010.93453132 -.00000164  00000-0  10000-3 0   362
2 26108   0.0381 140.5568 0007763 137.2965 252.1284  1.00270525 32265
SESAT 1                 
1 26243U 00019A   09009.75428551  .00000161  00000-0  10000-3 0  4719
2 26243   0.0714  19.6081 0006988 268.0671 129.1966  1.00270982 31981
GALAXY 4R (G-4R)        
1 26298U 00020A   09011.14643998 -.00000244  00000-0  10000-3 0  5995
2 26298   2.2923  78.5965 0003031 205.8741 162.1448  1.00269719 32108
GOES 11                 
1 26352U 00022A   09010.53730311  .00000088  00000-0  10000-3 0  1379
2 26352   0.0502 102.3867 0005944 164.3091 262.2025  1.00283619 31823
EUTELSAT W4             
1 26369U 00028A   09009.75422226  .00000161  00000-0  10000-3 0  3686
2 26369   0.0666 349.2774 0003869 295.8176 131.9019  1.00270071 31631
EXPRESS A3              
1 26378U 00031A   09010.81904557 -.00000089  00000-0  10000-3 0  9249
2 26378   0.6006  80.8263 0003858 204.0982 109.3374  1.00271587 31312
TDRS 8                  
1 26388U 00034A   09011.01016279 -.00000222  00000-0  10000-3 0  8733
2 26388   1.0613 121.6372 0004150 166.0699 275.9059  1.00270209 31359
COSMOS 2371             
1 26394U 00036A   09011.00362959 -.00000137  00000-0  10000-3 0  4832
2 26394   6.2536  68.4475 0003906 223.8946 259.1128  1.00271242 31207
ECHOSTAR 6              
1 26402U 00038A   09011.29476958 -.00000257  00000-0  00000+0 0  6122
2 26402   0.0447  67.0351 0003060 228.8177 208.4556  1.00269424 31122
INTELSAT 9 (IS-9)       
1 26451U 00043A   09011.28231174 -.00000285  00000-0  10000-3 0  1660
2 26451   0.0440 253.3920 0001890  17.8637 243.2520  1.00268357 31017
BRASILSAT B4            
1 26469U 00046A   09009.67907368 -.00000204  00000-0  10000-3 0  4526
2 26469   0.0527 171.6972 0003468 113.1690 344.9073  1.00271496 30786
NILESAT 102             
1 26470U 00046B   09009.84654000 -.00000052  00000-0  10000-3 0  2090
2 26470   0.0306 236.1452 0005821  45.7659 125.3377  1.00271680 30797
RADUGA-1 5              
1 26477U 00049A   09010.62301307  .00000133  00000-0  10000-3 0  4537
2 26477   6.1186  69.1371 0004236 209.8226 100.1526  1.00262440 30648
EUTELSAT W1             
1 26487U 00052A   09010.92586584  .00000069  00000-0  10000-3 0  2432
2 26487   0.0663 357.6415 0006001 290.1990 166.0328  1.00271811 30619
ASTRA 2B                
1 26494U 00054A   09009.98033546  .00000154  00000-0  00000+0 0  7155
2 26494   0.0092 293.7533 0012056  39.4083 157.5070  1.00273177 30490
AMC-7 (GE-7)            
1 26495U 00054B   09010.66740920  .00000098  00000-0  10000-3 0  3466
2 26495   0.0134 340.4720 0003713 318.6566 274.4265  1.00270999 30511
NSS-11 (AAP-1)          
1 26554U 00059A   09010.66257963 -.00000343  00000-0  10000-3 0  5014
2 26554   0.0110 350.8561 0002619 289.2773 176.8905  1.00268772 30361
NSAT 110                
1 26559U 00060A   09009.78017484 -.00000345  00000-0  10000-3 0  4813
2 26559   0.0379 253.3605 0001572  72.4424 174.5391  1.00268602 30288
AMC-6 (GE-6)            
1 26580U 00067A   09011.31168769 -.00000260  00000-0  10000-3 0  3623
2 26580   0.0033 279.3744 0002587 347.3968 244.3832  1.00270223 30159
INTELSAT 12 (IS-12)     
1 26590U 00068A   09009.01188359  .00000146  00000-0  10000-3 0  2122
2 26590   0.0553 244.6574 0002173   5.0141 268.2573  1.00269046 30052
BEIDOU 1A               
1 26599U 00069A   09010.62124341 -.00000280  00000-0  10000-3 0  2087
2 26599   0.8547  82.1635 0004421 222.7178 168.9382  1.00269405 30111
INTELSAT 1R (IS-1R)     
1 26608U 00072A   09008.95950432 -.00000264  00000-0  10000-3 0    49
2 26608   0.0272 219.1899 0000219 121.8151  68.0205  1.00270059 29900
ANIK F1                 
1 26624U 00076A   09010.31301483 -.00000071  00000-0  10000-3 0  4174
2 26624   0.0140  76.9101 0002916 232.5744 165.8464  1.00271479 29899
ASTRA 2D                
1 26638U 00081A   09009.00000000  .00000159  00000-0  00000+0 0  7095
2 26638   0.0670 227.1560 0003461   3.2380 266.4870  1.00271082 29592
AMC-8 (GE-8)            
1 26639U 00081B   09008.66369142  .00000115  00000-0  10000-3 0  3488
2 26639   0.0284  52.8182 0003703 246.9071 268.5472  1.00274067 29552
BEIDOU 1B               
1 26643U 00082A   09010.93788784 -.00000140  00000-0  10000-3 0  2741
2 26643   1.6205  79.3880 0005403 203.9937 245.1601  1.00269871 29562
TURKSAT 2A              
1 26666U 01002A   09010.88642303  .00000147  00000-0  10000-3 0  3814
2 26666   0.0615 245.3770 0005740  48.6860 177.5483  1.00267823 29326
SICRAL 1                
1 26694U 01005A   09009.84559193  .00000110  00000-0  10000-3 0  3748
2 26694   1.1059  80.6412 0004329 202.1045 147.4018  1.00277471 29069
SKYNET 4F               
1 26695U 01005B   09011.01841662 -.00000241  00000-0  10000-3 0  1515
2 26695   3.3310  58.3974 0002905 231.2445 153.5329  1.00266113 29057
EUROBIRD 1              
1 26719U 01011A   09010.66090172  .00000152  00000-0  10000-3 0  4356
2 26719   0.0604 354.3391 0003310 285.6016  96.7515  1.00271683 28753
BSAT-2A                 
1 26720U 01011B   09009.78017601 -.00000344  00000-0  10000-3 0  2920
2 26720   0.0923 287.3455 0005312  26.1695 186.6262  1.00268406 28724
XM-2 (ROCK)             
1 26724U 01012A   09009.22743534 -.00000196  00000-0  10000-3 0  5226
2 26724   0.0739 271.5454 0000299 180.9344  13.0271  1.00269297 28706
EKRAN 21                
1 26736U 01014A   09011.08068837 -.00000302  00000-0  10000-3 0  4941
2 26736   5.5354  79.4471 0002290 246.8595 272.5963  1.00277008 28517
XM-1 (ROLL)             
1 26761U 01018A   09011.10562444 -.00000205  00000-0  10000-3 0  3030
2 26761   0.0802 269.2570 0000228  90.5914  63.7645  1.00270019 28196
INTELSAT 10 (IS-10)     
1 26766U 01019A   09010.92118977 -.00000024  00000-0  10000-3 0  2952
2 26766   0.0496 107.6213 0001940 132.2138 270.8144  1.00272061 28096
INTELSAT 901 (IS-901)   
1 26824U 01024A   09011.20718053 -.00000141  00000-0  00000+0 0  3592
2 26824   0.0061  14.3086 0003296 266.7019 246.4062  1.00271422 27848
ASTRA 2C                
1 26853U 01025A   09009.00000000  .00000159  00000-0  00000+0 0  6351
2 26853   0.0530  61.0120 0002153 320.6050 115.2350  1.00268313 27764
ARTEMIS                 
1 26863U 01029A   09010.02065256  .00000125  00000-0  10000-3 0  6161
2 26863   7.0606  71.3445 0004469 250.5761 176.5519  1.00273582 28562
GOES 12                 
1 26871U 01031A   09011.48771729 -.00000251  00000-0  10000-3 0  8863
2 26871   0.3766 262.3950 0000917 103.2474 206.2980  1.00273254 27430
COSMOS 2379             
1 26892U 01037A   09010.81483576  .00000072  00000-0  10000-3 0  1995
2 26892   4.4573  71.1076 0004136 171.0612 172.9782  1.00269669 27022
INTELSAT 902 (IS-902)   
1 26900U 01039A   09009.86638308  .00000038  00000-0  10000-3 0  3281
2 26900   0.0214  93.3143 0003439 211.4558 178.6301  1.00272526 27004
ATLANTIC BIRD 2         
1 26927U 01042A   09010.24603366 -.00000063  00000-0  10000-3 0  1629
2 26927   0.0596   6.9966 0005074 266.1636 277.1965  1.00272052 26745
DIRECTV 4S              
1 26985U 01052A   09010.48443466 -.00000111  00000-0  10000-3 0  2314
2 26985   0.0382  84.9217 0001839 213.8092 244.6609  1.00271801 26157
INSAT-3C                
1 27298U 02002A   09010.94807098 -.00000076  00000-0  10000-3 0  8680
2 27298   0.0683  95.7645 0005880 179.5954 250.4904  1.00271413 25532
ECHOSTAR 7              
1 27378U 02006A   09009.71170272  .00000006  00000-0  10000-3 0  2768
2 27378   0.0191 311.0021 0001635 347.5497 308.1425  1.00273508 25211
INTELSAT 904 (IS-904)   
1 27380U 02007A   09010.59488679  .00000051  00000-0  10000-3 0  3416
2 27380   0.0119  19.6615 0003586 272.9208  91.7990  1.00270840 25265
TDRS 9                  
1 27389U 02011A   09010.07195765 -.00000271  00000-0  10000-3 0  3240
2 27389   2.7013 239.5217 0004794  58.3709 135.6652  1.00268666 26594
JCSAT 8                 
1 27399U 02015A   09010.44394795 -.00000163  00000-0  10000-3 0  1631
2 27399   0.0195 287.0627 0002003   7.9218 128.9233  1.00270642 24928
ASTRA 3A                
1 27400U 02015B   09010.01535454  .00000142  00000-0  00000+0 0  1985
2 27400   0.0870 237.6259 0004072  37.1311 223.9066  1.00273327 24923
INTELSAT 903 (IS-903)   
1 27403U 02016A   09009.89648815 -.00000233  00000-0  10000-3 0  1650
2 27403   0.0139 319.8923 0003211 323.1841 114.6922  1.00271167 24911
NSS-7                   
1 27414U 02019A   09010.82624104 -.00000168  00000-0  10000-3 0  2899
2 27414   0.0351 112.4337 0002556 170.2380 103.2184  1.00269990 24752
DIRECTV 5 (TEMPO 1)     
1 27426U 02023A   09010.42072515 -.00000053  00000-0  10000-3 0  2439
2 27426   0.0358 101.4250 0003652 187.6001 222.3697  1.00271320 24497
INTELSAT 905 (IS-905)   
1 27438U 02027A   09011.18012818 -.00000184  00000-0  00000+0 0   326
2 27438   0.0215 331.9520 0005643 302.4351 236.7867  1.00272121 24240
EXPRESS 4A              
1 27441U 02029A   09009.90186029 -.00000106  00000-0  10000-3 0  1314
2 27441   0.0105 286.1781 0002853 242.7475 251.2822  1.00272021 24135
GALAXY 3C (G-3C)        
1 27445U 02030A   09010.15409964 -.00000147  00000-0  00000+0 0  9773
2 27445   0.0250 178.1979 0000132 205.1525  46.8813  1.00270221 24112
ATLANTIC BIRD 3         
1 27460U 02035A   09009.84569150 -.00000037  00000-0  10000-3 0   777
2 27460   0.0316 323.6748 0003564 314.4486 130.8147  1.00272205 23909
N-STAR C                
1 27461U 02035B   09008.64388512 -.00000295  00000-0  10000-3 0  9119
2 27461   0.0431 213.8835 0003312  54.8419 207.3937  1.00270054 23892
HOT BIRD 6              
1 27499U 02038A   09008.94412705  .00000098  00000-0  10000-3 0  5103
2 27499   0.0148 331.5055 0005692 289.6890 200.3747  1.00276143 23408
